IRIDIUM 144             
1 43249U 18030A   24121.79999298  .00000216  00000+0  70135-4 0  9994
2 43249  86.3956 255.2592 0002033  93.4205 266.7223 14.34217673318718
IRIDIUM 149             
1 43250U 18030B   24121.87610572  .00000172  00000+0  54460-4 0  9994
2 43250  86.3956 255.2031 0002009  96.8767 263.2657 14.34214665318745
IRIDIUM 157             
1 43251U 18030C   24122.10443860  .00000430  00000+0  14643-3 0  9991
2 43251  86.3959 255.1432 0002355 100.7184 259.4278 14.34215749318756
IRIDIUM 140             
1 43252U 18030D   24121.91415869  .00000186  00000+0  59330-4 0  9999
2 43252  86.3954 255.2374 0001889  89.3715 270.7697 14.34217510318783
IRIDIUM 145             
1 43253U 18030E   24122.11078027  .00000180  00000+0  57283-4 0  9993
2 43253  86.3955 255.1292 0001744  98.3233 261.8160 14.34215801318741
IRIDIUM 146             
1 43254U 18030F   24121.88244006  .00000052  00000+0  11417-4 0  9996
2 43254  86.3956 255.2397 0001898  94.4485 265.6927 14.34213017318724
IRIDIUM 148             
1 43255U 18030G   24122.12980744  .00000405  00000+0  13763-3 0  9998
2 43255  86.3953 255.1675 0002159 102.2703 257.8735 14.34213604318803
IRIDIUM 142             
1 43256U 18030H   24122.09809556  .00000054  00000+0  12048-4 0  9992
2 43256  86.3954 255.0979 0001923  99.5653 260.5760 14.34215804318758
